satname,norad_id,inclination_deg,eccentricity,mean_motion_rev_per_day,perigee_km,apogee_km,l1,l2
STARLINK-1316,45415,53.1555,0.0005743,15.38834858,445.6324317868239,453.4747171806757,1 45415U 20019BH  26159.47368166  .00051026  00000+0  13098-2 0  9991,2 45415  53.1555  64.8949 0005743  84.0259 276.1400 15.38834858343937
STARLINK-1286,45417,53.0457,0.0001485,15.64128814,374.74248897897996,376.748392063816,1 45417U 20019BK  26158.99378616  .00058848  00000+0  61009-3 0  9995,2 45417  53.0457  53.6176 0001485 200.8215 159.2739 15.64128814344288
STARLINK-1308,45419,53.0463,0.0007609,15.65877779,365.5802573507335,375.8506610231234,1 45419U 20019BM  26159.46699829  .00042148  00000+0  40951-3 0  9991,2 45419  53.0463  70.6967 0007609  51.2890 308.8804 15.65877779343832
STARLINK-1329,45531,53.043,0.0002754,15.73385159,347.377611891161,351.08304581589437,1 45531U 20025A   26159.77281553  .00073748  00000+0  52098-3 0  9993,2 45531  53.0430 352.8595 0002754 154.7767 205.3386 15.73385159339736
STARLINK-1338,45532,53.045,0.0002784,15.67969925,362.8335746019311,366.58799224774157,1 45532U 20025B   26159.80104517  .00046985  00000+0  41925-3 0  9992,2 45532  53.0450 359.4022 0002784 105.0323 255.1001 15.67969925339646
STARLINK-1350,45535,53.0717,0.0001287,15.38244371,450.42181448054816,452.1797117607766,1 45535U 20025E   26159.74729394  .00004505  00000+0  12801-3 0  9997,2 45535  53.0717 324.7744 0001287  82.6004 277.5145 15.38244371340169
STARLINK-1362,45538,53.1563,0.0003129,15.37332994,451.86185099375507,456.13740209464595,1 45538U 20025H   26159.84131995 -.00152811  00000+0 -41883-2 0  9992,2 45538  53.1563  35.5363 0003129 159.3151 200.7980 15.37332994339169
STARLINK-1368,45540,53.1578,0.0004039,15.37497176,450.75393347172667,456.27254053317756,1 45540U 20025K   26159.39933065  .00041174  00000+0  11075-2 0  9990,2 45540  53.1578  37.9824 0004039 135.9275 224.2051 15.37497176339089
STARLINK-1371,45542,53.0444,0.0003993,15.62436172,377.9235997034493,383.32114493818426,1 45542U 20025M   26159.91670139  .00087422  00000+0  96190-3 0  9998,2 45542  53.0444   8.5577 0003993 145.0517 286.7573 15.62436172  6002
STARLINK-1372,45543,53.1571,0.0003222,15.380469,449.68467519735896,454.0859415728828,1 45543U 20025N   26159.81267392  .00046816  00000+0  12348-2 0  9995,2 45543  53.1571  35.5369 0003222 125.8123 234.3181 15.38046900338256
STARLINK-1373,45544,53.0454,0.0002617,15.69898911,357.4230561739914,360.9493711440209,1 45544U 20025P   26159.81848647  .00053277  00000+0  43826-3 0  9999,2 45544  53.0454   4.5460 0002617  75.1860 284.9446 15.69898911339578
STARLINK-1327,45555,53.0423,0.0003847,15.67309014,364.0115202104216,369.2009256461424,1 45555U 20025AA  26159.79861068  .00055362  00000+0  50591-3 0  9994,2 45555  53.0423 341.8215 0003847  76.3083 283.8360 15.67309014339883
STARLINK-1356,45564,53.0438,2.47e-05,15.65247031,372.36165388343125,372.69513675395956,1 45564U 20025AK  26159.82155328  .00042569  00000+0  42457-3 0  9990,2 45564  53.0438 354.8790 0000247 358.7880   1.3134 15.65247031339705
STARLINK-1357,45565,53.0462,0.0005021,15.69461772,357.0537394656385,363.82061565474487,1 45565U 20025AL  26158.70559999  .00060520  00000+0  50559-3 0  9998,2 45565  53.0462 317.0948 0005021 118.5529 241.5993 15.69461772340141
STARLINK-1361,45567,53.0437,0.0001828,15.62843168,378.21362283490544,380.6841962434328,1 45567U 20025AN  26159.81869705  .00117730  00000+0  12686-2 0  9996,2 45567  53.0437 353.2059 0001828 271.4958  88.5846 15.62843168339731
STARLINK-1366,45569,53.0221,0.0008898,16.33870145,176.32237396108485,187.9970780146523,1 45569U 20025AQ  26159.86449388  .04744558  12235-4  68110-3 0  9994,2 45569  53.0221 293.4110 0008898 313.0526  46.9772 16.33870145340557
STARLINK-1376,45570,53.1599,0.0003956,15.38361194,448.25341871833007,453.6565963146786,1 45570U 20025AR  26159.85432814  .00058187  00000+0  15143-2 0  9992,2 45570  53.1599  11.7400 0003956 116.6988 243.4421 15.38361194339499
STARLINK-1320,45572,53.0405,0.0008607,15.87119608,304.6062873116671,316.1198713482254,1 45572U 20025AT  26159.91670139  .00114321  00000+0  42635-3 0  9995,2 45572  53.0405 249.9952 0008607 339.8716 227.7106 15.87119608  6018
STARLINK-1321,45573,53.0445,0.0001701,15.63858453,375.3748610645207,377.6727966785029,1 45573U 20025AU  26159.76354779  .00128191  00000+0  13252-2 0  9990,2 45573  53.0445 337.3675 0001701 171.3417 188.7626 15.63858453339645
STARLINK-1331,45578,53.0469,0.0002118,15.63564782,375.9387662179997,378.80039880635195,1 45578U 20025AZ  26159.78719546  .00112952  00000+0  11841-2 0  9994,2 45578  53.0469 344.1552 0002118 115.1481 244.9752 15.63564782339864
STARLINK-1333,45580,53.1571,0.0002273,15.3535713,458.30564939370015,461.41420279630347,1 45580U 20025BB  26159.77365225  .00060756  00000+0  17410-2 0  9999,2 45580  53.1571  13.6474 0002273 151.0082 209.1048 15.35357130339464
STARLINK-1335,45581,53.1546,0.0004321,15.37084517,451.7834205118079,457.6883892762171,1 45581U 20025BC  26159.91670139  .00048429  00000+0  13170-2 0  9991,2 45581  53.1546   9.6924 0004321 133.7456 138.4802 15.37084517  5831
STARLINK-1337,45582,53.0456,0.0004391,15.74533349,343.0068682534693,348.9119697286269,1 45582U 20025BD  26159.83236513  .00152545  00000+0  10115-2 0  9998,2 45582  53.0456 333.2151 0004391 108.2923 251.8574 15.74533349340002
STARLINK-1347,45586,53.0376,0.0001727,15.68730018,361.3684299389097,363.69665719925797,1 45586U 20025BH  26159.91670139 -.00009591  00000+0 -77517-4 0  9992,2 45586  53.0376 303.3227 0001727 128.6544  25.1515 15.68730018  5925
STARLINK-1364,45589,53.0444,1.76e-05,15.6944735,360.35985936727684,360.59705863143427,1 45589U 20025BL  26159.76927826  .00059666  00000+0  49913-3 0  9990,2 45589  53.0444 340.7427 0000176 207.5386 152.5621 15.69447350339893
STARLINK-1365,45590,53.0453,0.0002248,15.5931794,388.10848997873563,391.1512779697705,1 45590U 20025BM  26159.91670139  .00077113  00000+0  95853-3 0  9992,2 45590  53.0453  14.2388 0002248 107.9823 355.8993 15.59317940  5930
STARLINK-1443,45660,53.1353,0.0002515,15.32624012,466.26514731712814,469.7087476627157,1 45660U 20035D   26159.83647895  .00047994  00000+0  15043-2 0  9991,2 45660  53.1353   2.0883 0002515 100.1860 259.9426 15.32624012332701
STARLINK-1446,45663,53.0219,0.0001945,15.47689811,422.16312796932016,424.80895933330066,1 45663U 20035G   26159.62788630  .00038566  00000+0  73847-3 0  9996,2 45663  53.0219 285.9615 0001945 194.3185 165.7767 15.47689811333730
STARLINK-1448,45665,53.0444,0.0004472,15.68348612,360.6104234425584,366.64025567906174,1 45665U 20035J   26159.79765726  .00061922  00000+0  54135-3 0  9998,2 45665  53.0444 327.9711 0004472  99.3236 260.8285 15.68348612333157
STARLINK-1451,45668,53.0534,0.0001957,15.14281,521.8116619028124,524.5128304277605,1 45668U 20035M   26159.81872992  .00025186  00000+0  13720-2 0  9994,2 45668  53.0534  13.2312 0001957 109.5019 250.6185 15.14281000332535
STARLINK-1452,45669,53.0244,0.0003743,15.5894515,388.1751778060252,393.24233573954643,1 45669U 20035N   26159.00004630  .00097053  00000+0  12186-2 0  9999,2 45669  53.0244 307.0322 0003743 312.1683 165.1654 15.58945150  5947
STARLINK-1453,45670,53.0397,0.000181,15.68864462,360.92745167542034,363.3674346438447,1 45670U 20035P   26159.82886649  .00062964  00000+0  53900-3 0  9992,2 45670  53.0397 288.1025 0001810 294.4662  65.6165 15.68864462333615
STARLINK-1454,45671,53.045,0.000202,15.66802724,366.69639158757127,369.42185482134664,1 45671U 20035Q   26159.73941823  .00059851  00000+0  55763-3 0  9999,2 45671  53.0450 329.4955 0002020  44.2458 315.8718 15.66802724333126
STARLINK-1456,45673,53.0424,0.0003838,15.65608152,368.89978239045195,374.0807962977524,1 45673U 20035S   26158.75019057  .00052432  00000+0  51349-3 0  9991,2 45673  53.0424 328.9466 0003838 157.8212 202.2969 15.65608152333065
STARLINK-1458,45675,53.0465,0.0001326,15.57269735,394.6646122303282,396.4609974185669,1 45675U 20035U   26159.91670139  .00134815  00000+0  17920-2 0  9998,2 45675  53.0465 337.8819 0001326  65.4937 227.9103 15.57269735  5938
STARLINK-1460,45676,53.1601,0.0002824,15.35181533,458.45014735260156,462.3125425138196,1 45676U 20035V   26159.81450096  .00059606  00000+0  17180-2 0  9998,2 45676  53.1601   0.6469 0002824 162.7745 197.3354 15.35181533332688
STARLINK-1392,45677,53.1549,0.000225,15.38471291,449.0927261992565,452.1656709886238,1 45677U 20035W   26159.83036793  .00067292  00000+0  17416-2 0  9997,2 45677  53.1549 359.1864 0002250 183.0268 177.0723 15.38471291332748
STARLINK-1394,45679,53.0406,0.0003976,15.65319982,369.63467146932635,375.0026338043035,1 45679U 20035Y   26159.13631822  .00042014  00000+0  41781-3 0  9994,2 45679  53.0406 317.3302 0003976 172.6257 187.4817 15.65319982333256
STARLINK-1402,45685,53.0413,0.0004528,15.57843203,390.8339832421516,396.9667402769601,1 45685U 20035AE  26159.14456219  .00051369  00000+0  67918-3 0  9990,2 45685  53.0413 308.1281 0004528 193.9096 166.1791 15.57843203333395
STARLINK-1404,45686,53.1581,0.0003457,15.44756615,429.73900807165865,434.4476013043195,1 45686U 20035AF  26159.82010414  .00064019  00000+0  13452-2 0  9998,2 45686  53.1581 340.8342 0003457 190.6678 169.4256 15.44756615333000
STARLINK-1413,45689,53.159,0.0001746,15.35105968,459.41171422748084,461.7998031988245,1 45689U 20035AJ  26159.78834723  .00054190  00000+0  15679-2 0  9995,2 45689  53.1590 345.4164 0001746 193.9757 166.1198 15.35105968332859
STARLINK-1417,45693,53.0525,0.000501,15.16911453,511.7280941071931,518.6351993912367,1 45693U 20035AN  26159.85014147  .00029345  00000+0  14803-2 0  9990,2 45693  53.0525 359.7362 0005010 139.1473 220.9896 15.16911453332716
STARLINK-1420,45695,53.0459,0.0003321,15.68300588,361.52398327520405,366.00195323411936,1 45695U 20035AQ  26159.65952811  .00060134  00000+0  52712-3 0  9992,2 45695  53.0459 297.9223 0003321 127.8778 232.2539 15.68300588333571
